[{"OBJECT_NAME":"STARLINK-3615","OBJECT_ID":"2022-017L","EPOCH":"2026-03-09T22:20:27.355488","MEAN_MOTION":15.08837163,"ECCENTRICITY":0.00014802,"INCLINATION":53.2212,"RA_OF_ASC_NODE":327.9103,"ARG_OF_PERICENTER":104.7654,"MEAN_ANOMALY":255.3502,"EPHEMERIS_TYPE":0,"CLASSIFICATION_TYPE":"U","NORAD_CAT_ID":51778,"ELEMENT_SET_NO":999,"REV_AT_EPOCH":22259,"BSTAR":-1.7228108e-5,"MEAN_MOTION_DOT":-5.62e-6,"MEAN_MOTION_DDOT":0},{"OBJECT_NAME":"STARLING 3","OBJECT_ID":"2023-100D","EPOCH":"2026-03-09T22:41:57.048288","MEAN_MOTION":15.11145977,"ECCENTRICITY":0.00066311,"INCLINATION":99.5096,"RA_OF_ASC_NODE":65.6477,"ARG_OF_PERICENTER":76.1122,"MEAN_ANOMALY":284.0839,"EPHEMERIS_TYPE":0,"CLASSIFICATION_TYPE":"U","NORAD_CAT_ID":57389,"ELEMENT_SET_NO":999,"REV_AT_EPOCH":14507,"BSTAR":0.00051487914,"MEAN_MOTION_DOT":8.551e-5,"MEAN_MOTION_DDOT":0}]
